STARLINK-35952          
1 66520U 25265E   26202.42100698  .00016548  00000+0  60918-3 0  9991
2 66520  42.9984 242.8923 0001282 273.9626  86.1079 15.27597070 37560
STARLINK-35915          
1 66521U 25265F   26202.47611322  .00010763  00000+0  39991-3 0  9998
2 66521  42.9991 242.4423 0001420 278.5919  81.4772 15.27594112 37573
STARLINK-35946          
1 66522U 25265G   26202.42614762  .00011533  00000+0  42807-3 0  9991
2 66522  43.0016 242.9264 0001476 269.0488  91.0194 15.27572242 37563
STARLINK-35969          
1 66523U 25265H   26202.40173113  .00009756  00000+0  36343-3 0  9992
2 66523  43.0007 242.7400 0001374 267.5141  92.5553 15.27593109 37560
STARLINK-35687          
1 66524U 25265J   26202.10821244  .00013223  00000+0  48906-3 0  9997
2 66524  43.0006 244.8473 0001149 233.7169 126.3576 15.27587606 37519
STARLINK-35975          
1 66525U 25265K   26202.14147314  .00010593  00000+0  39384-3 0  9998
2 66525  42.9988 244.2314 0001376 273.5813  86.4881 15.27587014 37524
STARLINK-35932          
1 66526U 25265L   26202.46583639  .00011754  00000+0  43584-3 0  9995
2 66526  42.9989 242.3631 0001344 274.1240  85.9458 15.27590358 37577
STARLINK-35935          
1 66527U 25265M   26202.15817616  .00020264  00000+0  74289-3 0  9999
2 66527  43.0005 244.3527 0001482 271.0617  89.0064 15.27623637 37522
STARLINK-35928          
1 66528U 25265N   26203.04788863  .00017132  00000+0  63035-3 0  9997
2 66528  42.9991 238.9870 0000980 327.3402  32.7389 15.27595188 37663
STARLINK-35933          
1 66529U 25265P   26202.16974345  .00009457  00000+0  35262-3 0  9994
2 66529  42.9995 244.4470 0001189 266.4603  93.6113 15.27591880 37525
STARLINK-35961          
1 66530U 25265Q   26202.48254274  .00011375  00000+0  42216-3 0  9992
2 66530  43.0003 242.4910 0001363 273.2278  86.8418 15.27586698 37572
STARLINK-35960          
1 66531U 25265R   26202.51194397  .00012638  00000+0  46781-3 0  9990
2 66531  43.0018 241.8542 0001918 277.5339  82.5295 15.27593353 37587
STARLINK-35914          
1 66532U 25265S   26202.48382082  .00011955  00000+0  44303-3 0  9996
2 66532  43.0008 242.4992 0001592 271.1841  88.8828 15.27596445 37574
STARLINK-35707          
1 66533U 25265T   26202.47225720  .00010673  00000+0  39666-3 0  9993
2 66533  43.0002 242.4120 0001347 276.3058  83.7640 15.27593333 37576
STARLINK-35976          
1 66534U 25265U   26202.43387364  .00015662  00000+0  57725-3 0  9992
2 66534  42.9989 242.9816 0001879  48.9202 311.1811 15.27592123 37563
STARLINK-35514          
1 66535U 25265V   26202.49538904  .00010481  00000+0  38971-3 0  9993
2 66535  42.9999 242.5869 0001480 260.7332  99.3352 15.27592209 37576
STARLINK-35640          
1 66536U 25265W   26202.41586840  .00010288  00000+0  38275-3 0  9990
2 66536  42.9986 242.8432 0001378 274.8560  85.2135 15.27587926 37569
STARLINK-35582          
1 66537U 25265X   26202.47354011  .00015297  00000+0  56388-3 0  9990
2 66537  42.9982 242.4150 0001671 278.5505  81.5157 15.27601860 37573
STARLINK-35577          
1 66538U 25265Y   26202.40431805  .00008699  00000+0  32510-3 0  9990
2 66538  42.9988 242.7558 0001312 279.5512  80.5192 15.27595013 37565
STARLINK-35697          
1 66539U 25265Z   26202.13633792  .00008452  00000+0  31625-3 0  9993
2 66539  42.9989 244.1839 0001558 284.2398  75.8281 15.27585070 37526
STARLINK-35818          
1 66540U 25265AA  26202.50437212  .00013166  00000+0  48683-3 0  9995
2 66540  43.0014 242.6513 0003778 250.2673 109.7772 15.27595354 37579
STARLINK-35796          
1 66541U 25265AB  26202.41458781  .00014231  00000+0  52543-3 0  9994
2 66541  42.9973 242.8356 0000348 350.7863   9.2982 15.27593184 37561
STARLINK-35833          
1 66542U 25265AC  26202.50697275  .00022729  00000+0  83240-3 0  9997
2 66542  43.0016 242.6775 0001632 268.8414  91.2251 15.27601080 37579
STARLINK-35315          
1 66543U 25265AD  26202.42357687  .00014424  00000+0  53227-3 0  9994
2 66543  43.0010 242.9019 0001306 280.2666  79.8038 15.27603090 37560
STARLINK-35728          
1 66544U 25265AE  26202.12861000  .00023028  00000+0  84253-3 0  9994
2 66544  42.9983 244.1249 0001296 279.5630  80.5075 15.27626591 37524
SHIJIAN-30A (SJ-30A)    
1 66545U 25266A   26203.18942584  .00006665  00000+0  36367-3 0  9991
2 66545  51.7991  15.4467 0006699   8.9447 351.1647 15.15456730 37160
SHIJIAN-30B (SJ-30B)    
1 66546U 25266B   26203.18995078  .00007983  00000+0  43247-3 0  9997
2 66546  51.7973  15.4092 0006599  26.0065 334.1241 15.15445885 37161
SHIJIAN-30C (SJ-30C)    
1 66547U 25266C   26203.25655545  .00006370  00000+0  34804-3 0  9996
2 66547  51.7981  15.1239 0006496   9.8075 350.3027 15.15486232 37171
SHIJIAN-28 (SJ-28)      
1 66549U 25277A   26203.11031934 -.00000353  00000+0  00000+0 0  9998
2 66549   4.4495 271.5758 0001075  58.3637 126.4760  1.00273735  2509
GLOBAL-33               
1 66554U 25267A   26202.41435605  .00007641  00000+0  21119-3 0  9992
2 66554  42.0181 217.0570 0008432 141.5703 218.5738 15.37305331 37313
