OBJECT_NAME,OBJECT_ID,EPOCH,MEAN_MOTION,ECCENTRICITY,INCLINATION,RA_OF_ASC_NODE,ARG_OF_PERICENTER,MEAN_ANOMALY,EPHEMERIS_TYPE,CLASSIFICATION_TYPE,NORAD_CAT_ID,ELEMENT_SET_NO,REV_AT_EPOCH,BSTAR,MEAN_MOTION_DOT,MEAN_MOTION_DDOT
STARLINK-35952,2025-265E,2026-07-21T10:06:15.003072,15.27597070,.00012825,42.9984,242.8923,273.9626,86.1079,0,U,66520,999,3756,.60918099E-3,.16548E-3,0
STARLINK-35915,2025-265F,2026-07-21T11:25:36.182208,15.27594112,.00014201,42.9991,242.4423,278.5919,81.4772,0,U,66521,999,3757,.39991301E-3,.10763E-3,0
STARLINK-35946,2025-265G,2026-07-21T10:13:39.154368,15.27572242,.00014761,43.0016,242.9264,269.0488,91.0194,0,U,66522,999,3756,.42806574E-3,.11533E-3,0
STARLINK-35969,2025-265H,2026-07-21T09:38:29.569632,15.27593109,.00013747,43.0007,242.7400,267.5141,92.5553,0,U,66523,999,3756,.36342739E-3,.9756E-4,0
STARLINK-35687,2025-265J,2026-07-21T02:35:49.554816,15.27587606,.00011496,43.0006,244.8473,233.7169,126.3576,0,U,66524,999,3751,.48905556E-3,.13223E-3,0
STARLINK-35975,2025-265K,2026-07-21T03:23:43.279296,15.27587014,.00013769,42.9988,244.2314,273.5813,86.4881,0,U,66525,999,3752,.39383946E-3,.10593E-3,0
STARLINK-35932,2025-265L,2026-07-21T11:10:48.264096,15.27590358,.0001344,42.9989,242.3631,274.1240,85.9458,0,U,66526,999,3757,.43583655E-3,.11754E-3,0
STARLINK-35935,2025-265M,2026-07-21T03:47:46.420224,15.27623637,.0001482,43.0005,244.3527,271.0617,89.0064,0,U,66527,999,3752,.74288804E-3,.20264E-3,0
STARLINK-35928,2025-265N,2026-07-22T01:08:57.577632,15.27595188,.00009804,42.9991,238.9870,327.3402,32.7389,0,U,66528,999,3766,.63034792E-3,.17132E-3,0
STARLINK-35933,2025-265P,2026-07-21T04:04:25.834080,15.27591880,.00011892,42.9995,244.4470,266.4603,93.6113,0,U,66529,999,3752,.35262021E-3,.9457E-4,0
STARLINK-35961,2025-265Q,2026-07-21T11:34:51.692736,15.27586698,.00013631,43.0003,242.4910,273.2278,86.8418,0,U,66530,999,3757,.42215854E-3,.11375E-3,0
STARLINK-35960,2025-265R,2026-07-21T12:17:11.959008,15.27593353,.00019186,43.0018,241.8542,277.5339,82.5295,0,U,66531,999,3758,.46780634E-3,.12638E-3,0
STARLINK-35914,2025-265S,2026-07-21T11:36:42.118848,15.27596445,.00015926,43.0008,242.4992,271.1841,88.8828,0,U,66532,999,3757,.44303006E-3,.11955E-3,0
STARLINK-35707,2025-265T,2026-07-21T11:20:03.022080,15.27593333,.0001347,43.0002,242.4120,276.3058,83.7640,0,U,66533,999,3757,.39665853E-3,.10673E-3,0
STARLINK-35976,2025-265U,2026-07-21T10:24:46.682496,15.27592123,.00018791,42.9989,242.9816,48.9202,311.1811,0,U,66534,999,3756,.57724984E-3,.15662E-3,0
STARLINK-35514,2025-265V,2026-07-21T11:53:21.613056,15.27592209,.00014806,42.9999,242.5869,260.7332,99.3352,0,U,66535,999,3757,.38971473E-3,.10481E-3,0
STARLINK-35640,2025-265W,2026-07-21T09:58:51.029760,15.27587926,.00013788,42.9986,242.8432,274.8560,85.2135,0,U,66536,999,3756,.38274833E-3,.10288E-3,0
STARLINK-35582,2025-265X,2026-07-21T11:21:53.865504,15.27601860,.00016714,42.9982,242.4150,278.5505,81.5157,0,U,66537,999,3757,.56387858E-3,.15297E-3,0
STARLINK-35577,2025-265Y,2026-07-21T09:42:13.079520,15.27595013,.00013125,42.9988,242.7558,279.5512,80.5192,0,U,66538,999,3756,.32509592E-3,.8699E-4,0
STARLINK-35697,2025-265Z,2026-07-21T03:16:19.596288,15.27585070,.00015582,42.9989,244.1839,284.2398,75.8281,0,U,66539,999,3752,.31624892E-3,.8452E-4,0
STARLINK-35818,2025-265AA,2026-07-21T12:06:17.751168,15.27595354,.00037789,43.0014,242.6513,250.2673,109.7772,0,U,66540,999,3757,.48682717E-3,.13166E-3,0
STARLINK-35796,2025-265AB,2026-07-21T09:57:00.386784,15.27593184,.00003488,42.9973,242.8356,350.7863,9.2982,0,U,66541,999,3756,.5254337E-3,.14231E-3,0
STARLINK-35833,2025-265AC,2026-07-21T12:10:02.445600,15.27601080,.00016321,43.0016,242.6775,268.8414,91.2251,0,U,66542,999,3757,.83239861E-3,.22729E-3,0
STARLINK-35315,2025-265AD,2026-07-21T10:09:57.041568,15.27603090,.00013064,43.0010,242.9019,280.2666,79.8038,0,U,66543,999,3756,.53226523E-3,.14424E-3,0
STARLINK-35728,2025-265AE,2026-07-21T03:05:11.904000,15.27626591,.00012969,42.9983,244.1249,279.5630,80.5075,0,U,66544,999,3752,.84252558E-3,.23028E-3,0
SHIJIAN-30A (SJ-30A),2025-266A,2026-07-22T04:32:46.392576,15.15456730,.00066996,51.7991,15.4467,8.9447,351.1647,0,U,66545,999,3716,.36366873E-3,.6665E-4,0
SHIJIAN-30B (SJ-30B),2025-266B,2026-07-22T04:33:31.747392,15.15445885,.00065993,51.7973,15.4092,26.0065,334.1241,0,U,66546,999,3716,.43247148E-3,.7983E-4,0
SHIJIAN-30C (SJ-30C),2025-266C,2026-07-22T06:09:26.390880,15.15486232,.00064964,51.7981,15.1239,9.8075,350.3027,0,U,66547,999,3717,.34803558E-3,.637E-4,0
SHIJIAN-28 (SJ-28),2025-277A,2026-07-22T02:38:51.590976,1.00273735,.00010755,4.4495,271.5758,58.3637,126.4760,0,U,66549,999,250,0,-.353E-5,0
GLOBAL-33,2025-267A,2026-07-21T09:56:40.362720,15.37305331,.00084321,42.0181,217.0570,141.5703,218.5738,0,U,66554,999,3731,.21119177E-3,.7641E-4,0
